{
  "type": "FeatureCollection",
  "name": "park_footprints",
  "features": [
    {
      "type": "Feature",
      "properties": {
        "name": "Live Oak Park",
        "osmWayId": "392274785",
        "source": "osm-way-curated",
        "matchRadiusMeters": 320
      },
      "geometry": {
        "type": "Polygon",
        "coordinates": [
          [
            [-95.4097921, 29.7544345],
            [-95.4098176, 29.7544182],
            [-95.4098284, 29.7543798],
            [-95.4098284, 29.7543320],
            [-95.4098136, 29.7542983],
            [-95.4097895, 29.7542808],
            [-95.4097372, 29.7542738],
            [-95.4089674, 29.7542808],
            [-95.4089312, 29.7542924],
            [-95.4089151, 29.7543087],
            [-95.4089151, 29.7543367],
            [-95.4089110, 29.7547314],
            [-95.4089245, 29.7547523],
            [-95.4089513, 29.7547698],
            [-95.4089848, 29.7547733],
            [-95.4090183, 29.7547663],
            [-95.4097921, 29.7544345]
          ]
        ]
      }
    },
    {
      "type": "Feature",
      "properties": {
        "name": "Shepherd Park",
        "osmWayId": "289943234",
        "source": "osm-way-curated",
        "matchRadiusMeters": 360
      },
      "geometry": {
        "type": "Polygon",
        "coordinates": [
          [
            [-95.4163985, 29.8349965],
            [-95.4163778, 29.8335639],
            [-95.4186888, 29.8335422],
            [-95.4186845, 29.8337291],
            [-95.4185923, 29.8340191],
            [-95.4184029, 29.8343713],
            [-95.4183171, 29.8346319],
            [-95.4182811, 29.8348102],
            [-95.4182790, 29.8349885],
            [-95.4163985, 29.8349965]
          ]
        ]
      }
    },
    {
      "type": "Feature",
      "properties": {
        "name": "Starbucks",
        "osmWayId": "207778028",
        "source": "osm-way-curated",
        "matchRadiusMeters": 120
      },
      "geometry": {
        "type": "Polygon",
        "coordinates": [
          [
            [-95.4103791, 29.7533299],
            [-95.4104461, 29.7532716],
            [-95.4103379, 29.7531886],
            [-95.4103348, 29.7531727],
            [-95.4103017, 29.7531723],
            [-95.4103004, 29.7531897],
            [-95.4102816, 29.7531909],
            [-95.4102181, 29.7532553],
            [-95.4103138, 29.7533318],
            [-95.4103791, 29.7533299]
          ]
        ]
      }
    }
  ]
}
